[{"OBJECT_NAME":"STARLINK-4429","OBJECT_ID":"2022-099AG","EPOCH":"2026-03-09T21:09:08.617536","MEAN_MOTION":15.01256619,"ECCENTRICITY":6.054e-5,"INCLINATION":97.6006,"RA_OF_ASC_NODE":190.4052,"ARG_OF_PERICENTER":159.7351,"MEAN_ANOMALY":200.3898,"EPHEMERIS_TYPE":0,"CLASSIFICATION_TYPE":"U","NORAD_CAT_ID":53495,"ELEMENT_SET_NO":999,"REV_AT_EPOCH":19601,"BSTAR":-5.1155937e-5,"MEAN_MOTION_DOT":-7.15e-6,"MEAN_MOTION_DDOT":0},{"OBJECT_NAME":"UNISAT","OBJECT_ID":"2000-057C","EPOCH":"2026-03-09T10:21:07.624800","MEAN_MOTION":15.08907267,"ECCENTRICITY":0.00363457,"INCLINATION":64.544,"RA_OF_ASC_NODE":74.146,"ARG_OF_PERICENTER":312.3548,"MEAN_ANOMALY":47.4494,"EPHEMERIS_TYPE":0,"CLASSIFICATION_TYPE":"U","NORAD_CAT_ID":26547,"ELEMENT_SET_NO":999,"REV_AT_EPOCH":38146,"BSTAR":0.00046170414,"MEAN_MOTION_DOT":7.242e-5,"MEAN_MOTION_DDOT":0}]
